[{"OBJECT_NAME":"STARLINK-36463","OBJECT_ID":"2026-002L","EPOCH":"2026-03-09T02:45:48.896064","MEAN_MOTION":15.27591974,"ECCENTRICITY":0.00015516,"INCLINATION":43.0035,"RA_OF_ASC_NODE":328.287,"ARG_OF_PERICENTER":278.2259,"MEAN_ANOMALY":81.8417,"EPHEMERIS_TYPE":0,"CLASSIFICATION_TYPE":"U","NORAD_CAT_ID":67315,"ELEMENT_SET_NO":999,"REV_AT_EPOCH":1105,"BSTAR":0.00079769983,"MEAN_MOTION_DOT":0.00021762,"MEAN_MOTION_DDOT":0},{"OBJECT_NAME":"KUIPER-00226","OBJECT_ID":"2026-030X","EPOCH":"2026-03-09T15:01:51.726432","MEAN_MOTION":15.30655594,"ECCENTRICITY":0.0017713,"INCLINATION":51.8814,"RA_OF_ASC_NODE":220.1252,"ARG_OF_PERICENTER":64.2781,"MEAN_ANOMALY":296.003,"EPHEMERIS_TYPE":0,"CLASSIFICATION_TYPE":"U","NORAD_CAT_ID":67785,"ELEMENT_SET_NO":999,"REV_AT_EPOCH":507,"BSTAR":0.001553,"MEAN_MOTION_DOT":0.00046834,"MEAN_MOTION_DDOT":0}]
