STARLINK-36463          
1 67315U 26002L   26068.11514926  .00021762  00000+0  79770-3 0  9993
2 67315  43.0035 328.2870 0001551 278.2259  81.8417 15.27591974 11052
KUIPER-00226            
1 67785U 26030X   26068.62629313  .00046834  00000+0  15530-2 0  9998
2 67785  51.8814 220.1252 0017713  64.2781 296.0030 15.30655594  5078
